$$SOE
2460728.500000000, A.D. 2025-Feb-22 00:00:00.0000, 4.591576790940061E+08, -1.147774344693766E+08, -8.466994766654603E+07,
2460735.500000000, A.D. 2025-Mar-01 00:00:00.0000, 4.616646649586832E+08, -1.057821246907950E+08, -8.608182593302560E+07,
2460742.500000000, A.D. 2025-Mar-08 00:00:00.0000, 4.639707478291819E+08, -9.674082396869609E+07, -8.745624065858051E+07,
2460749.500000000, A.D. 2025-Mar-15 00:00:00.0000, 4.660756341196921E+08, -8.765761209995911E+07, -8.879272703806686E+07,
2460756.500000000, A.D. 2025-Mar-22 00:00:00.0000, 4.679790880527244E+08, -7.853655075122315E+07, -9.009083392918140E+07,
2460763.500000000, A.D. 2025-Mar-29 00:00:00.0000, 4.696809298092299E+08, -6.938168544643605E+07, -9.135012369562182E+07,
2460770.500000000, A.D. 2025-Apr-05 00:00:00.0000, 4.711810354289957E+08, -6.019704669596630E+07, -9.257017214182489E+07,
2460777.500000000, A.D. 2025-Apr-12 00:00:00.0000, 4.724793365349953E+08, -5.098665016033879E+07, -9.375056835450572E+07,
2460784.500000000, A.D. 2025-Apr-19 00:00:00.0000, 4.735758196943204E+08, -4.175449672746572E+07, -9.489091450631572E+07,
2460791.500000000, A.D. 2025-Apr-26 00:00:00.0000, 4.744705256869614E+08, -3.250457270401003E+07, -9.599082566352338E+07,
2460798.500000000, A.D. 2025-May-03 00:00:00.0000, 4.751635487956433E+08, -2.324085009929640E+07, -9.704992960690881E+07,
2460805.500000000, A.D. 2025-May-10 00:00:00.0000, 4.756550361449096E+08, -1.396728699075716E+07, -9.806786666808785E+07,
2460812.500000000, A.D. 2025-May-17 00:00:00.0000, 4.759451871258848E+08, -4.687828009787858E+06, -9.904428958828464E+07,
2460819.500000000, A.D. 2025-May-24 00:00:00.0000, 4.760342530801700E+08, 4.593594999328591E+06, -9.997886342018352E+07,
2460826.500000000, A.D. 2025-May-31 00:00:00.0000, 4.759225376594051E+08, 1.387306246016271E+07, -1.008712654857102E+08,
2460833.500000000, A.D. 2025-Jun-07 00:00:00.0000, 4.756103974582001E+08, 2.314666789209452E+07, -1.017211852542700E+08,
2460840.500000000, A.D. 2025-Jun-14 00:00:00.0000, 4.750982405568044E+08, 3.241051942164519E+07, -1.025283239794822E+08,
2460847.500000000, A.D. 2025-Jun-21 00:00:00.0000, 4.743865241917568E+08, 4.166073870682588E+07, -1.032923944741194E+08,
2460854.500000000, A.D. 2025-Jun-28 00:00:00.0000, 4.734757546816078E+08, 5.089345903986425E+07, -1.040131211659347E+08,
2460861.500000000, A.D. 2025-Jul-05 00:00:00.0000, 4.723664880897303E+08, 6.010482478645919E+07, -1.046902401188057E+08,
2460868.500000000, A.D. 2025-Jul-12 00:00:00.0000, 4.710593304327446E+08, 6.929099135766646E+07, -1.053234989757251E+08,
2460875.500000000, A.D. 2025-Jul-19 00:00:00.0000, 4.695549376232652E+08, 7.844812514039466E+07, -1.059126568877986E+08,
2460882.500000000, A.D. 2025-Jul-26 00:00:00.0000, 4.678540153553990E+08, 8.757240333126609E+07, -1.064574844526220E+08,
2460889.500000000, A.D. 2025-Aug-02 00:00:00.0000, 4.659573189968175E+08, 9.666001369758835E+07, -1.069577636657126E+08,
2460896.500000000, A.D. 2025-Aug-09 00:00:00.0000, 4.638656535100172E+08, 1.057071542536734E+08, -1.074132878880825E+08,
2460903.500000000, A.D. 2025-Aug-16 00:00:00.0000, 4.615798734801248E+08, 1.147100327922486E+08, -1.078238618424158E+08,
2460910.500000000, A.D. 2025-Aug-23 00:00:00.0000, 4.591008835429996E+08, 1.236648662895533E+08, -1.081893016638714E+08,
2460917.500000000, A.D. 2025-Aug-30 00:00:00.0000, 4.564296395428500E+08, 1.325678808992124E+08, -1.085094349775080E+08,
2460924.500000000, A.D. 2025-Sep-06 00:00:00.0000, 4.535671490005422E+08, 1.414153135368673E+08, -1.087841007902288E+08,
2460931.500000000, A.D. 2025-Sep-13 00:00:00.0000, 4.505144692230363E+08, 1.502034125751440E+08, -1.090131492472755E+08,
2460938.500000000, A.D. 2025-Sep-20 00:00:00.0000, 4.472727063285561E+08, 1.589284360050665E+08, -1.091964416883257E+08,
2460945.500000000, A.D. 2025-Sep-27 00:00:00.0000, 4.438430162446876E+08, 1.675866501757244E+08, -1.093338508454330E+08,
2460952.500000000, A.D. 2025-Oct-04 00:00:00.0000, 4.402266056612695E+08, 1.761743296529684E+08, -1.094252609531687E+08,
2460959.500000000, A.D. 2025-Oct-11 00:00:00.0000, 4.364247325638027E+08, 1.846877572559467E+08, -1.094705678134944E+08,
2460966.500000000, A.D. 2025-Oct-18 00:00:00.0000, 4.324387066304879E+08, 1.931232239988458E+08, -1.094696788636334E+08,
2460973.500000000, A.D. 2025-Oct-25 00:00:00.0000, 4.282698896317173E+08, 2.014770289508200E+08, -1.094225132587100E+08,
2460980.500000000, A.D. 2025-Nov-01 00:00:00.0000, 4.239196958707350E+08, 2.097454790319231E+08, -1.093290019715076E+08,
2460987.500000000, A.D. 2025-Nov-08 00:00:00.0000, 4.193895926995000E+08, 2.179248887163169E+08, -1.091890879153100E+08,
2460994.500000000, A.D. 2025-Nov-15 00:00:00.0000, 4.146811012575396E+08, 2.260115795870714E+08, -1.090027261087027E+08,
2461001.500000000, A.D. 2025-Nov-22 00:00:00.0000, 4.097957978367739E+08, 2.340018799650908E+08, -1.087698839019888E+08,
2461008.500000000, A.D. 2025-Nov-29 00:00:00.0000, 4.047353157185329E+08, 2.418921257487819E+08, -1.084905411587131E+08,
2461015.500000000, A.D. 2025-Dec-06 00:00:00.0000, 3.995013452038496E+08, 2.496786623311773E+08, -1.081646901944876E+08,
2461022.500000000, A.D. 2025-Dec-13 00:00:00.0000, 3.940956322716895E+08, 2.573578442283067E+08, -1.077923357893270E+08,
2461029.500000000, A.D. 2025-Dec-20 00:00:00.0000, 3.885199793598374E+08, 2.649260334438817E+08, -1.073734955112395E+08,
2461036.500000000, A.D. 2025-Dec-27 00:00:00.0000, 3.827762471936831E+08, 2.723795991629177E+08, -1.069082000406583E+08,
2461043.500000000, A.D. 2026-Jan-03 00:00:00.0000, 3.768663562025780E+08, 2.797149181614127E+08, -1.063964934120128E+08,
2461050.500000000, A.D. 2026-Jan-10 00:00:00.0000, 3.707922876330094E+08, 2.869283752563722E+08, -1.058384332380452E+08,
2461057.500000000, A.D. 2026-Jan-17 00:00:00.0000, 3.645560845906939E+08, 2.940163637079185E+08, -1.052340909457483E+08,
2461064.500000000, A.D. 2026-Jan-24 00:00:00.0000, 3.581598530889516E+08, 3.009752855996107E+08, -1.045835520292382E+08,
2461071.500000000, A.D. 2026-Jan-31 00:00:00.0000, 3.516057631261424E+08, 3.078015521932267E+08, -1.038869163223347E+08,
2461078.500000000, A.D. 2026-Feb-07 00:00:00.0000, 3.448960498529993E+08, 3.144915842046041E+08, -1.031442983012415E+08,
2461085.500000000, A.D. 2026-Feb-14 00:00:00.0000, 3.380330150824705E+08, 3.210418119894330E+08, -1.023558274420148E+08,
2461092.500000000, A.D. 2026-Feb-21 00:00:00.0000, 3.310190295295317E+08, 3.274486762198389E+08, -1.015216486215446E+08,
2461099.500000000, A.D. 2026-Feb-28 00:00:00.0000, 3.238565346950554E+08, 3.337086302077188E+08, -1.006419223680648E+08,
2461106.500000000, A.D. 2026-Mar-07 00:00:00.0000, 3.165480423326990E+08, 3.398181419284109E+08, -9.971682493122458E+07,
2461113.500000000, A.D. 2026-Mar-14 00:00:00.0000, 3.090961342746363E+08, 3.457736934173390E+08, -9.874654861772552E+07,
2461120.500000000, A.D. 2026-Mar-21 00:00:00.0000, 3.015034643997355E+08, 3.515717804400826E+08, -9.773130231964876E+07,
2461127.500000000, A.D. 2026-Mar-28 00:00:00.0000, 2.937727607327162E+08, 3.572089134656309E+08, -9.667131196622850E+07,
2461134.500000000, A.D. 2026-Apr-04 00:00:00.0000, 2.859068270674462E+08, 3.626816189794031E+08, -9.556682092157668E+07,
2461141.500000000, A.D. 2026-Apr-11 00:00:00.0000, 2.779085443850095E+08, 3.679864407794483E+08, -9.441809038210520E+07,
2461148.500000000, A.D. 2026-Apr-18 00:00:00.0000, 2.697808722227939E+08, 3.731199412536382E+08, -9.322539978841957E+07,
2461155.500000000, A.D. 2026-Apr-25 00:00:00.0000, 2.615268500382212E+08, 3.780787026579083E+08, -9.198904725479330E+07,
2461162.500000000, A.D. 2026-May-02 00:00:00.0000, 2.531495985964614E+08, 3.828593283713708E+08, -9.070935002183390E+07,
2461169.500000000, A.D. 2026-May-09 00:00:00.0000, 2.446523215056720E+08, 3.874584440671179E+08, -8.938664494949728E+07,
2461176.500000000, A.D. 2026-May-16 00:00:00.0000, 2.360383072764898E+08, 3.918726989418034E+08, -8.802128907399493E+07,
2461183.500000000, A.D. 2026-May-23 00:00:00.0000, 2.273109319562370E+08, 3.960987680304196E+08, -8.661366014981779E+07,
2461190.500000000, A.D. 2026-May-30 00:00:00.0000, 2.184736602563218E+08, 4.001333559279270E+08, -8.516415695925903E+07,
2461197.500000000, A.D. 2026-Jun-06 00:00:00.0000, 2.095300448497461E+08, 4.039731986477634E+08, -8.367319962667823E+07,
2461204.500000000, A.D. 2026-Jun-13 00:00:00.0000, 2.004837275009492E+08, 4.076150638231041E+08, -8.214123025787029E+07,
2461211.500000000, A.D. 2026-Jun-20 00:00:00.0000, 1.913384415241522E+08, 4.110557521815164E+08, -8.056871361960305E+07,
2461218.500000000, A.D. 2026-Jun-27 00:00:00.0000, 1.820980138668168E+08, 4.142920999565014E+08, -7.895613773061708E+07,
2461225.500000000, A.D. 2026-Jul-04 00:00:00.0000, 1.727663668124501E+08, 4.173209814654481E+08, -7.730401442684904E+07,
2461232.500000000, A.D. 2026-Jul-11 00:00:00.0000, 1.633475195510341E+08, 4.201393117269173E+08, -7.561287993452378E+07,
2461239.500000000, A.D. 2026-Jul-18 00:00:00.0000, 1.538455897038783E+08, 4.227440491477911E+08, -7.388329545703115E+07,
2461246.500000000, A.D. 2026-Jul-25 00:00:00.0000, 1.442647948209814E+08, 4.251321982877237E+08, -7.211584777697568E+07,
2461253.500000000, A.D. 2026-Aug-01 00:00:00.0000, 1.346094538921132E+08, 4.273008126574218E+08, -7.031114988095835E+07,
2461260.500000000, A.D. 2026-Aug-08 00:00:00.0000, 1.248839890790105E+08, 4.292469975196477E+08, -6.846984162881498E+07,
2461267.500000000, A.D. 2026-Aug-15 00:00:00.0000, 1.150929280758850E+08, 4.309679131486051E+08, -6.659259046768749E+07,
2461274.500000000, A.D. 2026-Aug-22 00:00:00.0000, 1.052409063298135E+08, 4.324607797740070E+08, -6.468009202042706E+07,
2461281.500000000, A.D. 2026-Aug-29 00:00:00.0000, 9.533266682350555E+07, 4.337228828390686E+08, -6.273307044862489E+07,
2461288.500000000, A.D. 2026-Sep-05 00:00:00.0000, 8.537305954216121E+07, 4.347515757071667E+08, -6.075227901800409E+07,
2461295.500000000, A.D. 2026-Sep-12 00:00:00.0000, 7.536704306895955E+07, 4.355442823196350E+08, -5.873850088641055E+07,
$$EOE